0 SL-8 DEB
1 21161U 91009Y   13281.42418645 -.00000003  00000-0  10178-3 0  1366
2 21161 074.0709 277.7890 0132002 021.2711 129.5533 12.19390042  5927
0 SL-8 DEB
1 21161U 91009Y   13283.47942685 -.00000115  00000-0 -95152-3 0  1370
2 21161 074.0710 275.2168 0132025 018.3445 151.6522 12.19391254  6174
0 SL-8 DEB
1 21161U 91009Y   13286.08036106  .00000028  00000-0  39858-3 0  1385
2 21161 074.0712 271.9614 0132067 014.6401 049.2599 12.19389875  6499
0 SL-8 DEB
1 21161U 91009Y   13288.39789030  .00000092  00000-0  10065-2 0  1392
2 21161 074.0716 269.0606 0132090 011.3397 142.7645 12.19389522  6777
0 SL-8 DEB
1 21161U 91009Y   13291.00057319 -.00000097  00000-0 -78846-3 0  1403
2 21161 074.0722 265.8031 0132160 007.6490 048.0094 12.19391372  7098
0 SL-8 DEB
1 21161U 91009Y   13293.05444806 -.00000089  00000-0 -71179-3 0  1415
2 21161 074.0724 263.2327 0132189 004.7241 064.1249 12.19390848  7349
0 SL-8 DEB
1 21161U 91009Y   13295.36500104  .00000108  00000-0  11562-2 0  1425
2 21161 074.0725 260.3412 0132235 001.4461 127.0018 12.19388976  7626
